{
  "type": "FeatureCollection",
  "features": [
    {
      "type": "Feature",
      "properties": {
        "norad_id": 54741,
        "name": "GALAXY 35 (G-35)",
        "group": "intelsat",
        "lat": -0.016546415912414788,
        "lon": -138.86381906230073,
        "alt_km": 35780.60078532972,
        "timestamp": "2025-12-24T14:43:28.663802+00:00",
        "meta_object_name": "GALAXY 35 (G-35)",
        "meta_object_id": "2022-170A",
        "meta_epoch": "2025-12-24T05:48:32.040000",
        "meta_mean_motion": 1.00271455,
        "meta_eccentricity": 0.00022713,
        "meta_inclination": 0.0302,
        "meta_ra_of_asc_node": 247.2696,
        "meta_arg_of_pericenter": 28.3062,
        "meta_mean_anomaly": 171.4865,
        "meta_ephemeris_type": 0,
        "meta_classification_type": "U",
        "meta_norad_cat_id": 54741,
        "meta_element_set_no": 999,
        "meta_rev_at_epoch": 1114,
        "meta_bstar": 0,
        "meta_mean_motion_dot": -1.41e-06,
        "meta_mean_motion_ddot": 0,
        "tle_line1": "1 54741U 22170A   25358.24203750 -.00000141  00000+0  00000+0 0  9994",
        "tle_line2": "2 54741   0.0302 247.2696 0002271  28.3062 171.4865  1.00271455 11141"
      },
      "geometry": {
        "type": "Point",
        "coordinates": [
          -138.86381906230073,
          -0.016546415912414788
        ]
      }
    },
    {
      "type": "Feature",
      "properties": {
        "norad_id": 54742,
        "name": "GALAXY 36 (G-36)",
        "group": "intelsat",
        "lat": 0.0001785617172190052,
        "lon": -134.74829960654165,
        "alt_km": 35786.755126675394,
        "timestamp": "2025-12-24T14:43:28.663813+00:00",
        "meta_object_name": "GALAXY 36 (G-36)",
        "meta_object_id": "2022-170B",
        "meta_epoch": "2025-12-24T02:38:43.609344",
        "meta_mean_motion": 1.00272435,
        "meta_eccentricity": 3.583e-05,
        "meta_inclination": 0.0172,
        "meta_ra_of_asc_node": 70.1558,
        "meta_arg_of_pericenter": 278.5007,
        "meta_mean_anomaly": 54.9201,
        "meta_ephemeris_type": 0,
        "meta_classification_type": "U",
        "meta_norad_cat_id": 54742,
        "meta_element_set_no": 999,
        "meta_rev_at_epoch": 1101,
        "meta_bstar": 0,
        "meta_mean_motion_dot": -1.64e-06,
        "meta_mean_motion_ddot": 0,
        "tle_line1": "1 54742U 22170B   25358.11022696 -.00000164  00000+0  00000+0 0  9994",
        "tle_line2": "2 54742   0.0172  70.1558 0000358 278.5007  54.9201  1.00272435 11013"
      },
      "geometry": {
        "type": "Point",
        "coordinates": [
          -134.74829960654165,
          0.0001785617172190052
        ]
      }
    },
    {
      "type": "Feature",
      "properties": {
        "norad_id": 57493,
        "name": "GALAXY 37 (G-37)",
        "group": "intelsat",
        "lat": 0.002399752799552345,
        "lon": -172.7836099825885,
        "alt_km": 35786.07913893029,
        "timestamp": "2025-12-24T14:43:28.663825+00:00",
        "meta_object_name": "GALAXY 37 (G-37)",
        "meta_object_id": "2023-112A",
        "meta_epoch": "2025-12-24T06:12:26.382816",
        "meta_mean_motion": 1.00271583,
        "meta_eccentricity": 0.00020392,
        "meta_inclination": 0.0175,
        "meta_ra_of_asc_node": 10.2824,
        "meta_arg_of_pericenter": 266.718,
        "meta_mean_anomaly": 142.1368,
        "meta_ephemeris_type": 0,
        "meta_classification_type": "U",
        "meta_norad_cat_id": 57493,
        "meta_element_set_no": 999,
        "meta_rev_at_epoch": 878,
        "meta_bstar": 0,
        "meta_mean_motion_dot": 6.9e-07,
        "meta_mean_motion_ddot": 0,
        "tle_line1": "1 57493U 23112A   25358.25863869  .00000069  00000+0  00000+0 0  9990",
        "tle_line2": "2 57493   0.0175  10.2824 0002039 266.7180 142.1368  1.00271583  8789"
      },
      "geometry": {
        "type": "Point",
        "coordinates": [
          -172.7836099825885,
          0.002399752799552345
        ]
      }
    }
  ]
}